NORAD_CAT_ID,OBJECT_NAME,OBJECT_TYPE,EPOCH,MEAN_MOTION,ECCENTRICITY,INCLINATION,RA_OF_ASC_NODE,ARG_OF_PERICENTER,MEAN_ANOMALY,BSTAR,MEAN_MOTION_DOT,MEAN_MOTION_DDOT,TLE_LINE0,TLE_LINE1,TLE_LINE2,SEMIMAJOR_AXIS,PERIOD,APOGEE,PERIGEE,DECAYED
55660.0,STARLINK-5467,PAYLOAD,2023-03-18 11:03:23,15.69924807,0.000362,69.9998,69.2636,265.6813,94.3969,5.8082e-06,4.86e-06,0.0,0 STARLINK-5467,1 55660U 23021AJ  23077.46069135  .00000486  00000-0  58082-5 0  9999,2 55660  69.9998  69.2636 0003620 265.6813  94.3969 15.69924807  5352,6737.249,91.724,361.553,356.675,0.0
55660.0,STARLINK-5467,PAYLOAD,2023-03-19 05:24:25,15.69926746,0.00034,69.9983,67.1151,273.3145,86.7661,4.3818e-06,3.14e-06,0.0,0 STARLINK-5467,1 55660U 23021AJ  23078.22529204  .00000314  00000-0  43818-5 0  9993,2 55660  69.9983  67.1151 0003400 273.3145  86.7661 15.69926746  5173,6737.244,91.724,361.399,356.818,0.0
55660.0,STARLINK-5467,PAYLOAD,2023-03-19 08:27:55,15.69924711,0.0003522,69.9984,66.7564,272.4995,87.5797,2.4115e-06,7.7e-07,0.0,0 STARLINK-5467,1 55660U 23021AJ  23078.35272665  .00000077  00000-0  24115-5 0  9998,2 55660  69.9984  66.7564 0003522 272.4995  87.5797 15.69924711  5499,6737.249,91.724,361.487,356.742,0.0
55660.0,STARLINK-5467,PAYLOAD,2023-03-19 16:06:41,15.69923225,0.0003333,69.9979,65.8609,270.9718,89.1095,2.4374e-06,8e-07,0.0,0 STARLINK-5467,1 55660U 23021AJ  23078.67131002  .00000080  00000-0  24374-5 0  9993,2 55660  69.9979  65.8609 0003333 270.9718  89.1095 15.69923225  5543,6737.254,91.724,361.364,356.873,0.0
55660.0,STARLINK-5467,PAYLOAD,2023-03-20 07:24:11,15.69935755,0.0003025,69.9994,64.0712,255.5988,104.4872,9.6583e-06,9.49e-06,0.0,0 STARLINK-5467,1 55660U 23021AJ  23079.30846795  .00000949  00000-0  96583-5 0  9991,2 55660  69.9994  64.0712 0003025 255.5988 104.4872 15.69935755  5345,6737.218,91.723,361.121,357.045,0.0
55660.0,STARLINK-5467,PAYLOAD,2023-03-20 10:27:43,15.69917407,0.000319,69.9992,63.7093,277.8155,82.2678,-5.1232e-06,-8.28e-06,0.0,0 STARLINK-5467,1 55660U 23021AJ  23079.43591601 -.00000828  00000-0 -51232-5 0  9998,2 55660  69.9992  63.7093 0003190 277.8155  82.2678 15.69917407  5360,6737.27,91.725,361.284,356.986,0.0
55660.0,STARLINK-5467,PAYLOAD,2023-03-20 16:34:43,15.6991423,0.0002585,70.0012,62.9948,277.312,82.7782,5.6307e-06,4.65e-06,0.0,0 STARLINK-5467,1 55660U 23021AJ  23079.69078578  .00000465  00000-0  56307-5 0  9992,2 55660  70.0012  62.9948 0002585 277.3120  82.7782 15.69914230  5700,6737.279,91.725,360.886,357.403,0.0
55660.0,STARLINK-5467,PAYLOAD,2023-03-21 07:52:13,15.69924111,0.0002923,69.9995,61.2024,265.3708,94.7154,2.4507e-05,2.735e-05,0.0,0 STARLINK-5467,1 55660U 23021AJ  23080.32793924  .00002735  00000-0  24507-4 0  9991,2 55660  69.9995  61.2024 0002923 265.3708  94.7154 15.69924111  5502,6737.251,91.724,361.085,357.147,0.0
55660.0,STARLINK-5467,PAYLOAD,2023-03-21 10:55:45,15.69910755,0.0003023,69.9993,60.8459,279.3619,80.7235,-4.2234e-06,-7.2e-06,0.0,0 STARLINK-5467,1 55660U 23021AJ  23080.45538805 -.00000720  00000-0 -42234-5 0  9992,2 55660  69.9993  60.8459 0003023 279.3619  80.7235 15.69910755  5824,6737.289,91.725,361.191,357.118,0.0
55660.0,STARLINK-5467,PAYLOAD,2023-03-22 05:16:46,15.69909427,0.0002841,69.9995,58.6954,266.6206,93.4665,5.6698e-05,6.606e-05,0.0,0 STARLINK-5467,1 55660U 23021AJ  23081.21997877  .00006606  00000-0  56698-4 0  9990,2 55660  69.9995  58.6954 0002841 266.6206  93.4665 15.69909427  5641,6737.293,91.725,361.072,357.244,0.0
55660.0,STARLINK-5467,PAYLOAD,2023-03-22 08:20:17,15.69914568,0.0002711,69.9988,58.3375,271.0781,89.0104,-1.7361e-05,-2.298e-05,0.0,0 STARLINK-5467,1 55660U 23021AJ  23081.34742431 -.00002298  00000-0 -17361-4 0  9997,2 55660  69.9988  58.3375 0002711 271.0781  89.0104 15.69914568  5664,6737.278,91.725,360.97,357.317,0.0
55660.0,STARLINK-5467,PAYLOAD,2023-03-23 04:13:03,15.69925191,0.0003067,69.9994,56.0069,270.4594,89.6251,2.3687e-06,7.2e-07,0.0,0 STARLINK-5467,1 55660U 23021AJ  23082.17573102  .00000072  00000-0  23687-5 0  9991,2 55660  69.9994  56.0069 0003067 270.4594  89.6251 15.69925191  5793,6737.248,91.724,361.179,357.047,0.0
55660.0,STARLINK-5467,PAYLOAD,2023-03-23 08:48:18,15.69926635,0.0003568,69.9992,55.471,272.9461,87.1326,-6.7306e-06,-1.022e-05,0.0,0 STARLINK-5467,1 55660U 23021AJ  23082.36688157 -.00001022  00000-0 -67306-5 0  9993,2 55660  69.9992  55.4710 0003568 272.9461  87.1326 15.69926635  6121,6737.244,91.724,361.513,356.705,0.0
55660.0,STARLINK-5467,PAYLOAD,2023-03-24 04:41:02,15.69963505,0.000311,70.0,53.1442,262.0513,98.033,3.7908e-05,4.355e-05,0.0,0 STARLINK-5467,1 55660U 23021AJ  23083.19516752  .00004355  00000-0  37908-4 0  9990,2 55660  70.0000  53.1442 0003110 262.0513  98.0330 15.69963505  5955,6737.138,91.722,361.099,356.908,0.0
55660.0,STARLINK-5467,PAYLOAD,2023-03-24 07:44:35,15.69915497,0.0003071,69.9998,52.7857,273.4206,86.6638,-1.6827e-05,-2.234e-05,0.0,0 STARLINK-5467,1 55660U 23021AJ  23083.32263843 -.00002234  00000-0 -16827-4 0  9998,2 55660  69.9998  52.7857 0003071 273.4206  86.6638 15.69915497  5977,6737.276,91.725,361.21,357.072,0.0
55660.0,STARLINK-5467,PAYLOAD,2023-03-24 15:23:22,15.69900595,0.0002989,69.9998,51.8891,270.3983,89.687,2.0105e-06,2.9e-07,0.0,0 STARLINK-5467,1 55660U 23021AJ  23083.64122958  .00000029  00000-0  20105-5 0  9997,2 55660  69.9998  51.8891 0002989 270.3983  89.6870 15.69900595  6021,6737.318,91.726,361.197,357.17,0.0
55660.0,STARLINK-5467,PAYLOAD,2023-03-25 05:09:11,15.69875352,0.0003289,70.0005,50.2783,251.3841,108.6998,-4.3649e-05,-5.447e-05,0.0,0 STARLINK-5467,1 55660U 23021AJ  23084.21471482 -.00005447  00000-0 -43649-4 0  9998,2 55660  70.0005  50.2783 0003289 251.3841 108.6998 15.69875352  6117,6737.391,91.727,361.472,357.04,0.0
55660.0,STARLINK-5467,PAYLOAD,2023-03-25 08:12:38,15.69921448,0.0003099,69.9999,49.9186,269.3438,90.7403,1.1615e-05,1.184e-05,0.0,0 STARLINK-5467,1 55660U 23021AJ  23084.34211262  .00001184  00000-0  11615-4 0  9990,2 55660  69.9999  49.9186 0003099 269.3438  90.7403 15.69921448  6130,6737.259,91.724,361.212,357.036,0.0
55660.0,STARLINK-5467,PAYLOAD,2023-03-25 21:58:22,15.6995853,0.00034,70.0002,48.3077,285.0786,75.0033,2.9604e-05,3.353e-05,0.0,0 STARLINK-5467,1 55660U 23021AJ  23084.91553298  .00003353  00000-0  29604-4 0  9998,2 55660  70.0002  48.3077 0003400 285.0786  75.0033 15.69958530  6527,6737.153,91.722,361.308,356.727,0.0
55660.0,STARLINK-5467,PAYLOAD,2023-03-26 04:05:22,15.69952654,0.0003331,70.0003,47.5907,258.3398,101.7424,-3.8262e-06,-6.73e-06,0.0,0 STARLINK-5467,1 55660U 23021AJ  23085.17040451 -.00000673  00000-0 -38262-5 0  9994,2 55660  70.0003  47.5907 0003331 258.3398 101.7424 15.69952654  6269,6737.169,91.723,361.279,356.79,0.0
55660.0,STARLINK-5467,PAYLOAD,2023-03-26 10:12:24,15.69939725,0.0003437,69.9986,46.8718,263.3324,96.7481,-1.7142e-05,-2.275e-05,0.0,0 STARLINK-5467,1 55660U 23021AJ  23085.42527922 -.00002275  00000-0 -17142-4 0  9998,2 55660  69.9986  46.8718 0003437 263.3324  96.7481 15.69939725  6305,6737.206,91.723,361.387,356.756,0.0
55660.0,STARLINK-5467,PAYLOAD,2023-03-26 22:26:26,15.69891221,0.0003135,70.0002,45.4394,266.7075,93.3762,5.9048e-05,6.883e-05,0.0,0 STARLINK-5467,1 55660U 23021AJ  23085.93503381  .00006883  00000-0  59048-4 0  9995,2 55660  70.0002  45.4394 0003135 266.7075  93.3762 15.69891221  6681,6737.345,91.726,361.322,357.098,0.0
55660.0,STARLINK-5467,PAYLOAD,2023-03-26 23:58:12,15.69890144,0.0003481,70.0018,45.2612,270.0057,90.0739,5.7146e-05,6.655e-05,0.0,0 STARLINK-5467,1 55660U 23021AJ  23085.99875280  .00006655  00000-0  57146-4 0  9995,2 55660  70.0018  45.2612 0003481 270.0057  90.0739 15.69890144  6390,6737.348,91.726,361.559,356.868,0.0
55660.0,STARLINK-5467,PAYLOAD,2023-03-27 07:36:56,15.69914114,0.0003162,70.0008,44.3665,256.588,103.4964,6.1292e-05,7.16e-05,0.0,0 STARLINK-5467,1 55660U 23021AJ  23086.31732431  .00007160  00000-0  61292-4 0  9991,2 55660  70.0008  44.3665 0003162 256.5880 103.4964 15.69914114  6445,6737.28,91.725,361.275,357.014,0.0
55660.0,STARLINK-5467,PAYLOAD,2023-03-28 05:01:25,15.7001178,0.0003201,70.0,41.8575,266.7051,93.3779,-0.00013588,-0.00016578,0.0,0 STARLINK-5467,1 55660U 23021AJ  23087.20932275 -.00016578  00000-0 -13588-3 0  9997,2 55660  70.0000  41.8575 0003201 266.7051  93.3779 15.70011780  6581,6737.0,91.719,361.022,356.709,0.0
55660.0,STARLINK-5467,PAYLOAD,2023-03-28 14:11:58,15.69925715,0.0003282,69.9983,40.7816,262.7146,97.3677,6.8334e-06,6.09e-06,0.0,0 STARLINK-5467,1 55660U 23021AJ  23087.59165262  .00000609  00000-0  68334-5 0  9990,2 55660  69.9983  40.7816 0003282 262.7146  97.3677 15.69925715  6642,6737.247,91.724,361.323,356.9,0.0
55660.0,STARLINK-5467,PAYLOAD,2023-03-28 21:50:44,15.6992067,0.0002968,69.9991,39.8847,264.6594,95.4263,1.2104e-05,1.243e-05,0.0,0 STARLINK-5467,1 55660U 23021AJ  23087.91023909  .00001243  00000-0  12104-4 0  9995,2 55660  69.9991  39.8847 0002968 264.6594  95.4263 15.69920670  6995,6737.261,91.724,361.126,357.126,0.0
55660.0,STARLINK-5467,PAYLOAD,2023-03-29 07:01:14,15.69934351,0.0003578,70.0001,38.8114,269.5753,90.5032,3.6055e-06,2.21e-06,0.0,0 STARLINK-5467,1 55660U 23021AJ  23088.29253107  .00000221  00000-0  36055-5 0  9999,2 55660  70.0001  38.8114 0003578 269.5753  90.5032 15.69934351  7054,6737.222,91.724,361.497,356.676,0.0
55660.0,STARLINK-5467,PAYLOAD,2023-03-30 05:57:31,15.69929965,0.0003369,69.999,36.1237,264.2627,95.8185,-1.4223e-06,-3.84e-06,0.0,0 STARLINK-5467,1 55660U 23021AJ  23089.24828509 -.00000384  00000-0 -14223-5 0  9994,2 55660  69.9990  36.1237 0003369 264.2627  95.8185 15.69929965  6900,6737.234,91.724,361.369,356.83,0.0
55660.0,STARLINK-5467,PAYLOAD,2023-03-30 22:46:48,15.6991636,0.0003293,69.9993,34.1537,271.5677,88.5141,8.1972e-06,7.73e-06,0.0,0 STARLINK-5467,1 55660U 23021AJ  23089.94917695  .00000773  00000-0  81972-5 0  9991,2 55660  69.9993  34.1537 0003293 271.5677  88.5141 15.69916360  7015,6737.273,91.725,361.357,356.92,0.0
